{
  "type": "FeatureCollection",
  "features": [
    {
      "type": "Feature",
      "properties": {
        "OBJECT_NAME": "COSMOS 2251 DEB",
        "OBJECT_ID": "1993-036RA",
        "EPOCH": "2025-11-29T07:14:46.855680",
        "MEAN_MOTION": 14.57976827,
        "ECCENTRICITY": 0.00793304,
        "INCLINATION": 74.0628,
        "RA_OF_ASC_NODE": 332.3592,
        "ARG_OF_PERICENTER": 50.3938,
        "MEAN_ANOMALY": 325.4309,
        "EPHEMERIS_TYPE": 0,
        "CLASSIFICATION_TYPE": "U",
        "NORAD_CAT_ID": 34409,
        "ELEMENT_SET_NO": 999,
        "REV_AT_EPOCH": 88997,
        "BSTAR": 0.00020336842,
        "MEAN_MOTION_DOT": 9.44e-06,
        "MEAN_MOTION_DDOT": 0,
        "norad_id": 34409,
        "name": "COSMOS 2251 DEB",
        "group": "cosmos-2251-debris",
        "longitude_deg": NaN,
        "latitude_deg": NaN,
        "alt_km": NaN,
        "orbit_class": "HEO",
        "timestamp": "2025-11-30T04:57:05.905493+00:00"
      },
      "geometry": {
        "type": "Point",
        "coordinates": [
          NaN,
          NaN
        ]
      }
    },
    {
      "type": "Feature",
      "properties": {
        "OBJECT_NAME": "COSMOS 2251 DEB",
        "OBJECT_ID": "1993-036RB",
        "EPOCH": "2025-11-29T03:59:23.841024",
        "MEAN_MOTION": 15.1697191,
        "ECCENTRICITY": 0.0020669,
        "INCLINATION": 73.7373,
        "RA_OF_ASC_NODE": 290.6176,
        "ARG_OF_PERICENTER": 131.5698,
        "MEAN_ANOMALY": 245.3528,
        "EPHEMERIS_TYPE": 0,
        "CLASSIFICATION_TYPE": "U",
        "NORAD_CAT_ID": 34410,
        "ELEMENT_SET_NO": 999,
        "REV_AT_EPOCH": 89568,
        "BSTAR": 0.0025653886,
        "MEAN_MOTION_DOT": 0.00051264,
        "MEAN_MOTION_DDOT": 0,
        "norad_id": 34410,
        "name": "COSMOS 2251 DEB",
        "group": "cosmos-2251-debris",
        "longitude_deg": NaN,
        "latitude_deg": NaN,
        "alt_km": NaN,
        "orbit_class": "HEO",
        "timestamp": "2025-11-30T04:57:05.905499+00:00"
      },
      "geometry": {
        "type": "Point",
        "coordinates": [
          NaN,
          NaN
        ]
      }
    },
    {
      "type": "Feature",
      "properties": {
        "OBJECT_NAME": "COSMOS 2251 DEB",
        "OBJECT_ID": "1993-036RD",
        "EPOCH": "2025-11-29T18:42:30.933216",
        "MEAN_MOTION": 14.46955421,
        "ECCENTRICITY": 0.0187181,
        "INCLINATION": 73.9486,
        "RA_OF_ASC_NODE": 348.9791,
        "ARG_OF_PERICENTER": 87.1969,
        "MEAN_ANOMALY": 275.0596,
        "EPHEMERIS_TYPE": 0,
        "CLASSIFICATION_TYPE": "U",
        "NORAD_CAT_ID": 34412,
        "ELEMENT_SET_NO": 999,
        "REV_AT_EPOCH": 87463,
        "BSTAR": 0.00067072,
        "MEAN_MOTION_DOT": 3.006e-05,
        "MEAN_MOTION_DDOT": 0,
        "norad_id": 34412,
        "name": "COSMOS 2251 DEB",
        "group": "cosmos-2251-debris",
        "longitude_deg": NaN,
        "latitude_deg": NaN,
        "alt_km": NaN,
        "orbit_class": "HEO",
        "timestamp": "2025-11-30T04:57:05.905506+00:00"
      },
      "geometry": {
        "type": "Point",
        "coordinates": [
          NaN,
          NaN
        ]
      }
    },
    {
      "type": "Feature",
      "properties": {
        "OBJECT_NAME": "COSMOS 2251 DEB",
        "OBJECT_ID": "1993-036RE",
        "EPOCH": "2025-11-29T06:04:00.071904",
        "MEAN_MOTION": 14.28911891,
        "ECCENTRICITY": 0.00904569,
        "INCLINATION": 74.031,
        "RA_OF_ASC_NODE": 289.3692,
        "ARG_OF_PERICENTER": 8.4471,
        "MEAN_ANOMALY": 57.4319,
        "EPHEMERIS_TYPE": 0,
        "CLASSIFICATION_TYPE": "U",
        "NORAD_CAT_ID": 34413,
        "ELEMENT_SET_NO": 999,
        "REV_AT_EPOCH": 86938,
        "BSTAR": 0.0015593436,
        "MEAN_MOTION_DOT": 4.092e-05,
        "MEAN_MOTION_DDOT": 0,
        "norad_id": 34413,
        "name": "COSMOS 2251 DEB",
        "group": "cosmos-2251-debris",
        "longitude_deg": NaN,
        "latitude_deg": NaN,
        "alt_km": NaN,
        "orbit_class": "HEO",
        "timestamp": "2025-11-30T04:57:05.905512+00:00"
      },
      "geometry": {
        "type": "Point",
        "coordinates": [
          NaN,
          NaN
        ]
      }
    },
    {
      "type": "Feature",
      "properties": {
        "OBJECT_NAME": "COSMOS 2251 DEB",
        "OBJECT_ID": "1993-036RM",
        "EPOCH": "2025-11-29T17:18:49.887072",
        "MEAN_MOTION": 14.68234892,
        "ECCENTRICITY": 0.0107047,
        "INCLINATION": 74.0315,
        "RA_OF_ASC_NODE": 129.1391,
        "ARG_OF_PERICENTER": 253.2461,
        "MEAN_ANOMALY": 117.2257,
        "EPHEMERIS_TYPE": 0,
        "CLASSIFICATION_TYPE": "U",
        "NORAD_CAT_ID": 34420,
        "ELEMENT_SET_NO": 999,
        "REV_AT_EPOCH": 89579,
        "BSTAR": 0.00021944,
        "MEAN_MOTION_DOT": 1.342e-05,
        "MEAN_MOTION_DDOT": 0,
        "norad_id": 34420,
        "name": "COSMOS 2251 DEB",
        "group": "cosmos-2251-debris",
        "longitude_deg": NaN,
        "latitude_deg": NaN,
        "alt_km": NaN,
        "orbit_class": "HEO",
        "timestamp": "2025-11-30T04:57:05.905518+00:00"
      },
      "geometry": {
        "type": "Point",
        "coordinates": [
          NaN,
          NaN
        ]
      }
    },
    {
      "type": "Feature",
      "properties": {
        "OBJECT_NAME": "COSMOS 2251 DEB",
        "OBJECT_ID": "1993-036RS",
        "EPOCH": "2025-11-29T17:11:07.376640",
        "MEAN_MOTION": 14.61998373,
        "ECCENTRICITY": 0.0025762,
        "INCLINATION": 74.0196,
        "RA_OF_ASC_NODE": 79.4749,
        "ARG_OF_PERICENTER": 208.4884,
        "MEAN_ANOMALY": 151.4876,
        "EPHEMERIS_TYPE": 0,
        "CLASSIFICATION_TYPE": "U",
        "NORAD_CAT_ID": 34425,
        "ELEMENT_SET_NO": 999,
        "REV_AT_EPOCH": 88550,
        "BSTAR": 0.00064144,
        "MEAN_MOTION_DOT": 3.202e-05,
        "MEAN_MOTION_DDOT": 0,
        "norad_id": 34425,
        "name": "COSMOS 2251 DEB",
        "group": "cosmos-2251-debris",
        "longitude_deg": NaN,
        "latitude_deg": NaN,
        "alt_km": NaN,
        "orbit_class": "HEO",
        "timestamp": "2025-11-30T04:57:05.905524+00:00"
      },
      "geometry": {
        "type": "Point",
        "coordinates": [
          NaN,
          NaN
        ]
      }
    },
    {
      "type": "Feature",
      "properties": {
        "OBJECT_NAME": "COSMOS 2251 DEB",
        "OBJECT_ID": "1993-036RW",
        "EPOCH": "2025-11-29T01:50:47.033664",
        "MEAN_MOTION": 15.35434517,
        "ECCENTRICITY": 0.00057347,
        "INCLINATION": 73.9732,
        "RA_OF_ASC_NODE": 197.5737,
        "ARG_OF_PERICENTER": 49.3807,
        "MEAN_ANOMALY": 101.0285,
        "EPHEMERIS_TYPE": 0,
        "CLASSIFICATION_TYPE": "U",
        "NORAD_CAT_ID": 34429,
        "ELEMENT_SET_NO": 999,
        "REV_AT_EPOCH": 89238,
        "BSTAR": 0.003978747,
        "MEAN_MOTION_DOT": 0.00139619,
        "MEAN_MOTION_DDOT": 0,
        "norad_id": 34429,
        "name": "COSMOS 2251 DEB",
        "group": "cosmos-2251-debris",
        "longitude_deg": NaN,
        "latitude_deg": NaN,
        "alt_km": NaN,
        "orbit_class": "HEO",
        "timestamp": "2025-11-30T04:57:05.905530+00:00"
      },
      "geometry": {
        "type": "Point",
        "coordinates": [
          NaN,
          NaN
        ]
      }
    },
    {
      "type": "Feature",
      "properties": {
        "OBJECT_NAME": "COSMOS 2251 DEB",
        "OBJECT_ID": "1993-036RX",
        "EPOCH": "2025-11-29T06:39:12.580416",
        "MEAN_MOTION": 14.39566211,
        "ECCENTRICITY": 0.00597217,
        "INCLINATION": 74.0511,
        "RA_OF_ASC_NODE": 328.2008,
        "ARG_OF_PERICENTER": 41.3628,
        "MEAN_ANOMALY": 319.2025,
        "EPHEMERIS_TYPE": 0,
        "CLASSIFICATION_TYPE": "U",
        "NORAD_CAT_ID": 34430,
        "ELEMENT_SET_NO": 999,
        "REV_AT_EPOCH": 87761,
        "BSTAR": 0.00041430214,
        "MEAN_MOTION_DOT": 1.295e-05,
        "MEAN_MOTION_DDOT": 0,
        "norad_id": 34430,
        "name": "COSMOS 2251 DEB",
        "group": "cosmos-2251-debris",
        "longitude_deg": NaN,
        "latitude_deg": NaN,
        "alt_km": NaN,
        "orbit_class": "HEO",
        "timestamp": "2025-11-30T04:57:05.905538+00:00"
      },
      "geometry": {
        "type": "Point",
        "coordinates": [
          NaN,
          NaN
        ]
      }
    },
    {
      "type": "Feature",
      "properties": {
        "OBJECT_NAME": "COSMOS 2251 DEB",
        "OBJECT_ID": "1993-036RY",
        "EPOCH": "2025-11-29T16:25:07.918752",
        "MEAN_MOTION": 14.28714393,
        "ECCENTRICITY": 0.0068922,
        "INCLINATION": 74.0743,
        "RA_OF_ASC_NODE": 198.8295,
        "ARG_OF_PERICENTER": 188.0183,
        "MEAN_ANOMALY": 171.9872,
        "EPHEMERIS_TYPE": 0,
        "CLASSIFICATION_TYPE": "U",
        "NORAD_CAT_ID": 34431,
        "ELEMENT_SET_NO": 999,
        "REV_AT_EPOCH": 86956,
        "BSTAR": 0.00053451,
        "MEAN_MOTION_DOT": 1.354e-05,
        "MEAN_MOTION_DDOT": 0,
        "norad_id": 34431,
        "name": "COSMOS 2251 DEB",
        "group": "cosmos-2251-debris",
        "longitude_deg": NaN,
        "latitude_deg": NaN,
        "alt_km": NaN,
        "orbit_class": "HEO",
        "timestamp": "2025-11-30T04:57:05.905544+00:00"
      },
      "geometry": {
        "type": "Point",
        "coordinates": [
          NaN,
          NaN
        ]
      }
    }
  ]
}